[{"OBJECT_NAME":"STARLINK-6314","OBJECT_ID":"2023-065AM","EPOCH":"2026-03-09T22:00:01.999584","MEAN_MOTION":15.13773236,"ECCENTRICITY":0.00022538,"INCLINATION":43.0003,"RA_OF_ASC_NODE":195.7729,"ARG_OF_PERICENTER":268.1969,"MEAN_ANOMALY":54.0345,"EPHEMERIS_TYPE":0,"CLASSIFICATION_TYPE":"U","NORAD_CAT_ID":56538,"ELEMENT_SET_NO":999,"REV_AT_EPOCH":567,"BSTAR":0.0040185916,"MEAN_MOTION_DOT":0.00074338,"MEAN_MOTION_DDOT":0},{"OBJECT_NAME":"COSMOS 2251 DEB","OBJECT_ID":"1993-036BUD","EPOCH":"2026-02-18T05:36:35.053920","MEAN_MOTION":15.11947293,"ECCENTRICITY":0.0003046,"INCLINATION":73.9998,"RA_OF_ASC_NODE":239.3113,"ARG_OF_PERICENTER":315.2619,"MEAN_ANOMALY":161.0018,"EPHEMERIS_TYPE":0,"CLASSIFICATION_TYPE":"U","NORAD_CAT_ID":39547,"ELEMENT_SET_NO":999,"REV_AT_EPOCH":65042,"BSTAR":0.0029907,"MEAN_MOTION_DOT":0.00051628,"MEAN_MOTION_DDOT":0}]
